{"type": "FeatureCollection", "features": [ {"type": "Feature", "properties": {"norad_id": 66796, "name": "STARLINK-35964", "group": "last-30-days", "lat": 25.29950014665684, "lon": 50.50101308872127, "alt_km": 257.11158191041886, "timestamp": "2025-12-11T05:00:25.076493+00:00", "meta": {"OBJECT_NAME": "STARLINK-35964", "OBJECT_ID": "2025-278F", "EPOCH": "2025-12-10T12:00:02.999808", "MEAN_MOTION": 16.06931937, "ECCENTRICITY": 0.0002154, "INCLINATION": 42.9968, "RA_OF_ASC_NODE": 265.4876, "ARG_OF_PERICENTER": 266.1916, "MEAN_ANOMALY": 92.8735, "EPHEMERIS_TYPE": 0, "CLASSIFICATION_TYPE": "U", "NORAD_CAT_ID": 66796, "ELEMENT_SET_NO": 999, "REV_AT_EPOCH": 243, "BSTAR": -0.0015785777, "MEAN_MOTION_DOT": -0.01274001, "MEAN_MOTION_DDOT": 0.00055193252}, "tle": {"line1": "1 66796U 25278F   25344.50003472 -.01274001  55193-3 -15786-2 0  9999", "line2": "2 66796  42.9968 265.4876 0002154 266.1916  92.8735 16.06931937  2433"}}, "geometry": {"type": "Point", "coordinates": [50.50101308872127, 25.29950014665684]}}, {"type": "Feature", "properties": {"norad_id": 66797, "name": "STARLINK-36099", "group": "last-30-days", "lat": -42.977189313857856, "lon": 171.2534798551712, "alt_km": 301.5516800907135, "timestamp": "2025-12-11T05:00:25.076506+00:00", "meta": {"OBJECT_NAME": "STARLINK-36099", "OBJECT_ID": "2025-278G", "EPOCH": "2025-12-10T12:00:02.999808", "MEAN_MOTION": 15.92615926, "ECCENTRICITY": 0.00019345, "INCLINATION": 42.9988, "RA_OF_ASC_NODE": 265.9843, "ARG_OF_PERICENTER": 265.3236, "MEAN_ANOMALY": 259.0392, "EPHEMERIS_TYPE": 0, "CLASSIFICATION_TYPE": "U", "NORAD_CAT_ID": 66797, "ELEMENT_SET_NO": 999, "REV_AT_EPOCH": 265, "BSTAR": -0.0036510482, "MEAN_MOTION_DOT": -0.01295106, "MEAN_MOTION_DDOT": 0.00048770519}, "tle": {"line1": "1 66797U 25278G   25344.50003472 -.01295106  48771-3 -36510-2 0  9991", "line2": "2 66797  42.9988 265.9843 0001934 265.3236 259.0392 15.92615926  2657"}}, "geometry": {"type": "Point", "coordinates": [171.2534798551712, -42.977189313857856]}}, {"type": "Feature", "properties": {"norad_id": 66798, "name": "STARLINK-36041", "group": "last-30-days", "lat": -42.95456340182789, "lon": 173.87502547171965, "alt_km": 301.50955802136195, "timestamp": "2025-12-11T05:00:25.076516+00:00", "meta": {"OBJECT_NAME": "STARLINK-36041", "OBJECT_ID": "2025-278H", "EPOCH": "2025-12-10T12:00:02.999808", "MEAN_MOTION": 15.92665669, "ECCENTRICITY": 0.00018658, "INCLINATION": 42.9988, "RA_OF_ASC_NODE": 265.9797, "ARG_OF_PERICENTER": 262.6359, "MEAN_ANOMALY": 263.5435, "EPHEMERIS_TYPE": 0, "CLASSIFICATION_TYPE": "U", "NORAD_CAT_ID": 66798, "ELEMENT_SET_NO": 999, "REV_AT_EPOCH": 243, "BSTAR": -0.0036764343, "MEAN_MOTION_DOT": -0.01307366, "MEAN_MOTION_DDOT": 0.00049642953}, "tle": {"line1": "1 66798U 25278H   25344.50003472 -.01307366  49643-3 -36764-2 0  9994", "line2": "2 66798  42.9988 265.9797 0001865 262.6359 263.5435 15.92665669  2438"}}, "geometry": {"type": "Point", "coordinates": [173.87502547171965, -42.95456340182789]}}, {"type": "Feature", "properties": {"norad_id": 66799, "name": "STARLINK-36044", "group": "last-30-days", "lat": -42.85592552334354, "lon": 176.8497619453148, "alt_km": 301.32023686980483, "timestamp": "2025-12-11T05:00:25.076526+00:00", "meta": {"OBJECT_NAME": "STARLINK-36044", "OBJECT_ID": "2025-278J", "EPOCH": "2025-12-10T12:00:02.999808", "MEAN_MOTION": 15.92706098, "ECCENTRICITY": 0.00019188, "INCLINATION": 42.9987, "RA_OF_ASC_NODE": 265.9746, "ARG_OF_PERICENTER": 266.1993, "MEAN_ANOMALY": 262.0507, "EPHEMERIS_TYPE": 0, "CLASSIFICATION_TYPE": "U", "NORAD_CAT_ID": 66799, "ELEMENT_SET_NO": 999, "REV_AT_EPOCH": 259, "BSTAR": -0.0036432455, "MEAN_MOTION_DOT": -0.01298426, "MEAN_MOTION_DDOT": 0.00049042595}, "tle": {"line1": "1 66799U 25278J   25344.50003472 -.01298426  49043-3 -36432-2 0  9997", "line2": "2 66799  42.9987 265.9746 0001918 266.1993 262.0507 15.92706098  2597"}}, "geometry": {"type": "Point", "coordinates": [176.8497619453148, -42.85592552334354]}}, {"type": "Feature", "properties": {"norad_id": 66800, "name": "STARLINK-35996", "group": "last-30-days", "lat": -42.432487095371535, "lon": -177.2871573920287, "alt_km": 301.0835043531406, "timestamp": "2025-12-11T05:00:25.076537+00:00", "meta": {"OBJECT_NAME": "STARLINK-35996", "OBJECT_ID": "2025-278K", "EPOCH": "2025-12-10T12:00:02.999808", "MEAN_MOTION": 15.92809346, "ECCENTRICITY": 0.00019277, "INCLINATION": 42.9985, "RA_OF_ASC_NODE": 265.9639, "ARG_OF_PERICENTER": 268.0121, "MEAN_ANOMALY": 264.3563, "EPHEMERIS_TYPE": 0, "CLASSIFICATION_TYPE": "U", "NORAD_CAT_ID": 66800, "ELEMENT_SET_NO": 999, "REV_AT_EPOCH": 238, "BSTAR": -0.0036820454, "MEAN_MOTION_DOT": -0.0131916, "MEAN_MOTION_DDOT": 0.0005053644}, "tle": {"line1": "1 66800U 25278K   25344.50003472 -.01319160  50536-3 -36820-2 0  9999", "line2": "2 66800  42.9985 265.9639 0001927 268.0121 264.3563 15.92809346  2387"}}, "geometry": {"type": "Point", "coordinates": [-177.2871573920287, -42.432487095371535]}}, {"type": "Feature", "properties": {"norad_id": 66801, "name": "STARLINK-36080", "group": "last-30-days", "lat": -40.1124993818309, "lon": -163.17945234323147, "alt_km": 300.4656815817034, "timestamp": "2025-12-11T05:00:25.076547+00:00", "meta": {"OBJECT_NAME": "STARLINK-36080", "OBJECT_ID": "2025-278L", "EPOCH": "2025-12-10T12:00:02.999808", "MEAN_MOTION": 15.9306103, "ECCENTRICITY": 0.00019629, "INCLINATION": 42.9984, "RA_OF_ASC_NODE": 265.9376, "ARG_OF_PERICENTER": 266.0065, "MEAN_ANOMALY": 276.6526, "EPHEMERIS_TYPE": 0, "CLASSIFICATION_TYPE": "U", "NORAD_CAT_ID": 66801, "ELEMENT_SET_NO": 999, "REV_AT_EPOCH": 259, "BSTAR": -0.0037360121, "MEAN_MOTION_DOT": -0.0135593, "MEAN_MOTION_DDOT": 0.00053276585}, "tle": {"line1": "1 66801U 25278L   25344.50003472 -.01355930  53277-3 -37360-2 0  9990", "line2": "2 66801  42.9984 265.9376 0001962 266.0065 276.6526 15.93061030  2598"}}, "geometry": {"type": "Point", "coordinates": [-163.17945234323147, -40.1124993818309]}}, {"type": "Feature", "properties": {"norad_id": 66802, "name": "STARLINK-35604", "group": "last-30-days", "lat": -42.701210359925824, "lon": 179.51845703296226, "alt_km": 301.25016865020007, "timestamp": "2025-12-11T05:00:25.076559+00:00", "meta": {"OBJECT_NAME": "STARLINK-35604", "OBJECT_ID": "2025-278M", "EPOCH": "2025-12-10T12:00:02.999808", "MEAN_MOTION": 15.92752022, "ECCENTRICITY": 0.00018897, "INCLINATION": 42.9987, "RA_OF_ASC_NODE": 265.9697, "ARG_OF_PERICENTER": 263.3761, "MEAN_ANOMALY": 266.7397, "EPHEMERIS_TYPE": 0, "CLASSIFICATION_TYPE": "U", "NORAD_CAT_ID": 66802, "ELEMENT_SET_NO": 999, "REV_AT_EPOCH": 259, "BSTAR": -0.0036574079, "MEAN_MOTION_DOT": -0.01306524, "MEAN_MOTION_DDOT": 0.00049626119}, "tle": {"line1": "1 66802U 25278M   25344.50003472 -.01306524  49626-3 -36574-2 0  9995", "line2": "2 66802  42.9987 265.9697 0001889 263.3761 266.7397 15.92752022  2592"}}, "geometry": {"type": "Point", "coordinates": [179.51845703296226, -42.701210359925824]}}, {"type": "Feature", "properties": {"norad_id": 66803, "name": "STARLINK-35565", "group": "last-30-days", "lat": -42.14256971141626, "lon": -174.6585457727242, "alt_km": 301.00573328740666, "timestamp": "2025-12-11T05:00:25.076569+00:00", "meta": {"OBJECT_NAME": "STARLINK-35565", "OBJECT_ID": "2025-278N", "EPOCH": "2025-12-10T12:00:02.999808", "MEAN_MOTION": 15.92863576, "ECCENTRICITY": 0.00019488, "INCLINATION": 42.9986, "RA_OF_ASC_NODE": 265.9594, "ARG_OF_PERICENTER": 263.7247, "MEAN_ANOMALY": 270.5083, "EPHEMERIS_TYPE": 0, "CLASSIFICATION_TYPE": "U", "NORAD_CAT_ID": 66803, "ELEMENT_SET_NO": 999, "REV_AT_EPOCH": 268, "BSTAR": -0.0037270771, "MEAN_MOTION_DOT": -0.01338888, "MEAN_MOTION_DDOT": 0.00051956393}, "tle": {"line1": "1 66803U 25278N   25344.50003472 -.01338888  51956-3 -37271-2 0  9998", "line2": "2 66803  42.9986 265.9594 0001948 263.7247 270.5083 15.92863576  2689"}}, "geometry": {"type": "Point", "coordinates": [-174.6585457727242, -42.14256971141626]}}, {"type": "Feature", "properties": {"norad_id": 66804, "name": "STARLINK-36038", "group": "last-30-days", "lat": -41.69252178571502, "lon": -171.384329066153, "alt_km": 300.8423095159178, "timestamp": "2025-12-11T05:00:25.076581+00:00", "meta": {"OBJECT_NAME": "STARLINK-36038", "OBJECT_ID": "2025-278P", "EPOCH": "2025-12-10T12:00:02.999808", "MEAN_MOTION": 15.92904376, "ECCENTRICITY": 0.00018931, "INCLINATION": 42.9988, "RA_OF_ASC_NODE": 265.9535, "ARG_OF_PERICENTER": 268.0675, "MEAN_ANOMALY": 268.5211, "EPHEMERIS_TYPE": 0, "CLASSIFICATION_TYPE": "U", "NORAD_CAT_ID": 66804, "ELEMENT_SET_NO": 999, "REV_AT_EPOCH": 259, "BSTAR": -0.0036745853, "MEAN_MOTION_DOT": -0.0132303, "MEAN_MOTION_DDOT": 0.00050855317}, "tle": {"line1": "1 66804U 25278P   25344.50003472 -.01323030  50855-3 -36746-2 0  9995", "line2": "2 66804  42.9988 265.9535 0001893 268.0675 268.5211 15.92904376  2593"}}, "geometry": {"type": "Point", "coordinates": [-171.384329066153, -41.69252178571502]}}, {"type": "Feature", "properties": {"norad_id": 66805, "name": "STARLINK-36049", "group": "last-30-days", "lat": -40.713440590630746, "lon": -165.91679806682433, "alt_km": 300.6144238134111, "timestamp": "2025-12-11T05:00:25.076605+00:00", "meta": {"OBJECT_NAME": "STARLINK-36049", "OBJECT_ID": "2025-278Q", "EPOCH": "2025-12-10T12:00:02.999808", "MEAN_MOTION": 15.93012708, "ECCENTRICITY": 0.00019388, "INCLINATION": 42.9986, "RA_OF_ASC_NODE": 265.9431, "ARG_OF_PERICENTER": 265.1603, "MEAN_ANOMALY": 275.4375, "EPHEMERIS_TYPE": 0, "CLASSIFICATION_TYPE": "U", "NORAD_CAT_ID": 66805, "ELEMENT_SET_NO": 999, "REV_AT_EPOCH": 259, "BSTAR": -0.0037308784, "MEAN_MOTION_DOT": -0.01350677, "MEAN_MOTION_DDOT": 0.00052874202}, "tle": {"line1": "1 66805U 25278Q   25344.50003472 -.01350677  52874-3 -37309-2 0  9992", "line2": "2 66805  42.9986 265.9431 0001938 265.1603 275.4375 15.93012708  2594"}}, "geometry": {"type": "Point", "coordinates": [-165.91679806682433, -40.713440590630746]}}]}